LUR-1                   
1 60506U 24149AQ  26068.79566301  .00009121  00000+0  32985-3 0  9998
2 60506  97.3790 148.4255 0002777 309.1571  50.9421 15.28658648 86785
STARLINK-32462          
1 62129U 24222R   26068.53414897  .00020418  00000+0  74956-3 0  9993
2 62129  43.0035 133.7368 0002113 270.1900  89.8710 15.27574971 72767
