[{"OBJECT_NAME":"LUR-1","OBJECT_ID":"2024-149AQ","EPOCH":"2026-03-09T19:05:45.284064","MEAN_MOTION":15.28658648,"ECCENTRICITY":0.00027765,"INCLINATION":97.379,"RA_OF_ASC_NODE":148.4255,"ARG_OF_PERICENTER":309.1571,"MEAN_ANOMALY":50.9421,"EPHEMERIS_TYPE":0,"CLASSIFICATION_TYPE":"U","NORAD_CAT_ID":60506,"ELEMENT_SET_NO":999,"REV_AT_EPOCH":8678,"BSTAR":0.0003298462,"MEAN_MOTION_DOT":9.121e-5,"MEAN_MOTION_DDOT":0},{"OBJECT_NAME":"STARLINK-32462","OBJECT_ID":"2024-222R","EPOCH":"2026-03-09T12:49:10.471008","MEAN_MOTION":15.27574971,"ECCENTRICITY":0.00021136,"INCLINATION":43.0035,"RA_OF_ASC_NODE":133.7368,"ARG_OF_PERICENTER":270.19,"MEAN_ANOMALY":89.871,"EPHEMERIS_TYPE":0,"CLASSIFICATION_TYPE":"U","NORAD_CAT_ID":62129,"ELEMENT_SET_NO":999,"REV_AT_EPOCH":7276,"BSTAR":0.00074955938,"MEAN_MOTION_DOT":0.00020418,"MEAN_MOTION_DDOT":0}]
